{
  "type": "FeatureCollection",
  "features": [
    {
      "type": "Feature",
      "properties": {
        "norad_id": 37330,
        "name": "COSMOS 2251 DEB",
        "group": "cosmos-2251-debris",
        "lat": 35.87699054832519,
        "lon": 92.37002935599959,
        "alt_km": 652.2605617635109,
        "timestamp": "2025-12-18T08:58:43.812528+00:00",
        "meta_object_name": "COSMOS 2251 DEB",
        "meta_object_id": "1993-036BKW",
        "meta_epoch": "2025-12-15T04:39:38.606112",
        "meta_mean_motion": 14.59547518,
        "meta_eccentricity": 0.00569299,
        "meta_inclination": 74.0181,
        "meta_ra_of_asc_node": 290.4011,
        "meta_arg_of_pericenter": 138.2054,
        "meta_mean_anomaly": 222.3481,
        "meta_ephemeris_type": 0,
        "meta_classification_type": "U",
        "meta_norad_cat_id": 37330,
        "meta_element_set_no": 999,
        "meta_rev_at_epoch": 86404,
        "meta_bstar": 0.00024598877,
        "meta_mean_motion_dot": 1.165e-05,
        "meta_mean_motion_ddot": 0,
        "tle_line1": "1 37330U 93036BKW 25349.19419683  .00001165  00000+0  24599-3 0  9995",
        "tle_line2": "2 37330  74.0181 290.4011 0056929 138.2054 222.3481 14.59547518864043"
      },
      "geometry": {
        "type": "Point",
        "coordinates": [
          92.37002935599959,
          35.87699054832519
        ]
      }
    },
    {
      "type": "Feature",
      "properties": {
        "norad_id": 37331,
        "name": "COSMOS 2251 DEB",
        "group": "cosmos-2251-debris",
        "lat": 48.832116049626975,
        "lon": -141.49057258895328,
        "alt_km": 749.2093302787071,
        "timestamp": "2025-12-18T08:58:43.812538+00:00",
        "meta_object_name": "COSMOS 2251 DEB",
        "meta_object_id": "1993-036BKX",
        "meta_epoch": "2025-12-16T21:15:09.521568",
        "meta_mean_motion": 14.35033598,
        "meta_eccentricity": 0.00552693,
        "meta_inclination": 74.0751,
        "meta_ra_of_asc_node": 60.2873,
        "meta_arg_of_pericenter": 73.2754,
        "meta_mean_anomaly": 287.4454,
        "meta_ephemeris_type": 0,
        "meta_classification_type": "U",
        "meta_norad_cat_id": 37331,
        "meta_element_set_no": 999,
        "meta_rev_at_epoch": 84819,
        "meta_bstar": 0.00035206854,
        "meta_mean_motion_dot": 9.96e-06,
        "meta_mean_motion_ddot": 0,
        "tle_line1": "1 37331U 93036BKX 25350.88552687  .00000996  00000+0  35207-3 0  9995",
        "tle_line2": "2 37331  74.0751  60.2873 0055269  73.2754 287.4454 14.35033598848199"
      },
      "geometry": {
        "type": "Point",
        "coordinates": [
          -141.49057258895328,
          48.832116049626975
        ]
      }
    },
    {
      "type": "Feature",
      "properties": {
        "norad_id": 37336,
        "name": "COSMOS 2251 DEB",
        "group": "cosmos-2251-debris",
        "lat": 58.478887818042544,
        "lon": -11.261344024587478,
        "alt_km": 757.7503546784419,
        "timestamp": "2025-12-18T08:58:43.812548+00:00",
        "meta_object_name": "COSMOS 2251 DEB",
        "meta_object_id": "1993-036BLC",
        "meta_epoch": "2025-12-17T07:33:13.175712",
        "meta_mean_motion": 14.32760586,
        "meta_eccentricity": 0.00290162,
        "meta_inclination": 74.0414,
        "meta_ra_of_asc_node": 322.8603,
        "meta_arg_of_pericenter": 39.1846,
        "meta_mean_anomaly": 321.1399,
        "meta_ephemeris_type": 0,
        "meta_classification_type": "U",
        "meta_norad_cat_id": 37336,
        "meta_element_set_no": 999,
        "meta_rev_at_epoch": 65185,
        "meta_bstar": 6.9199726e-05,
        "meta_mean_motion_dot": 1.63e-06,
        "meta_mean_motion_ddot": 0,
        "tle_line1": "1 37336U 93036BLC 25351.31473583  .00000163  00000+0  69200-4 0  9993",
        "tle_line2": "2 37336  74.0414 322.8603 0029016  39.1846 321.1399 14.32760586651852"
      },
      "geometry": {
        "type": "Point",
        "coordinates": [
          -11.261344024587478,
          58.478887818042544
        ]
      }
    },
    {
      "type": "Feature",
      "properties": {
        "norad_id": 37340,
        "name": "COSMOS 2251 DEB",
        "group": "cosmos-2251-debris",
        "lat": 6.645950203465106,
        "lon": -91.29750496648849,
        "alt_km": 757.6081294995565,
        "timestamp": "2025-12-18T08:58:43.812558+00:00",
        "meta_object_name": "COSMOS 2251 DEB",
        "meta_object_id": "1993-036BLG",
        "meta_epoch": "2025-12-17T01:11:59.297568",
        "meta_mean_motion": 14.36928464,
        "meta_eccentricity": 0.00179655,
        "meta_inclination": 74.0254,
        "meta_ra_of_asc_node": 269.2249,
        "meta_arg_of_pericenter": 3.2012,
        "meta_mean_anomaly": 356.9253,
        "meta_ephemeris_type": 0,
        "meta_classification_type": "U",
        "meta_norad_cat_id": 37340,
        "meta_element_set_no": 999,
        "meta_rev_at_epoch": 84129,
        "meta_bstar": 0.00016814151,
        "meta_mean_motion_dot": 4.72e-06,
        "meta_mean_motion_ddot": 0,
        "tle_line1": "1 37340U 93036BLG 25351.04999187  .00000472  00000+0  16814-3 0  9996",
        "tle_line2": "2 37340  74.0254 269.2249 0017965   3.2012 356.9253 14.36928464841295"
      },
      "geometry": {
        "type": "Point",
        "coordinates": [
          -91.29750496648849,
          6.645950203465106
        ]
      }
    },
    {
      "type": "Feature",
      "properties": {
        "norad_id": 37483,
        "name": "COSMOS 2251 DEB",
        "group": "cosmos-2251-debris",
        "lat": -66.87733126494311,
        "lon": -4.865901044745915,
        "alt_km": 747.1255576076328,
        "timestamp": "2025-12-18T08:58:43.812568+00:00",
        "meta_object_name": "COSMOS 2251 DEB",
        "meta_object_id": "1993-036BLL",
        "meta_epoch": "2025-12-17T01:51:56.048256",
        "meta_mean_motion": 14.43563057,
        "meta_eccentricity": 0.00933386,
        "meta_inclination": 73.9734,
        "meta_ra_of_asc_node": 135.2418,
        "meta_arg_of_pericenter": 340.7121,
        "meta_mean_anomaly": 19.051,
        "meta_ephemeris_type": 0,
        "meta_classification_type": "U",
        "meta_norad_cat_id": 37483,
        "meta_element_set_no": 999,
        "meta_rev_at_epoch": 65342,
        "meta_bstar": 0.00018193502,
        "meta_mean_motion_dot": 6.2e-06,
        "meta_mean_motion_ddot": 0,
        "tle_line1": "1 37483U 93036BLL 25351.07773204  .00000620  00000+0  18194-3 0  9995",
        "tle_line2": "2 37483  73.9734 135.2418 0093338 340.7121  19.0510 14.43563057653422"
      },
      "geometry": {
        "type": "Point",
        "coordinates": [
          -4.865901044745915,
          -66.87733126494311
        ]
      }
    },
    {
      "type": "Feature",
      "properties": {
        "norad_id": 37484,
        "name": "COSMOS 2251 DEB",
        "group": "cosmos-2251-debris",
        "lat": 66.70959692824762,
        "lon": -24.53706226214969,
        "alt_km": 761.765137542633,
        "timestamp": "2025-12-18T08:58:43.812578+00:00",
        "meta_object_name": "COSMOS 2251 DEB",
        "meta_object_id": "1993-036BLM",
        "meta_epoch": "2025-12-15T22:30:27.179712",
        "meta_mean_motion": 14.41798427,
        "meta_eccentricity": 0.00396359,
        "meta_inclination": 73.8232,
        "meta_ra_of_asc_node": 202.4364,
        "meta_arg_of_pericenter": 236.871,
        "meta_mean_anomaly": 189.8739,
        "meta_ephemeris_type": 0,
        "meta_classification_type": "U",
        "meta_norad_cat_id": 37484,
        "meta_element_set_no": 999,
        "meta_rev_at_epoch": 65425,
        "meta_bstar": 0.00048864648,
        "meta_mean_motion_dot": 1.583e-05,
        "meta_mean_motion_ddot": 0,
        "tle_line1": "1 37484U 93036BLM 25349.93781458  .00001583  00000+0  48865-3 0  9995",
        "tle_line2": "2 37484  73.8232 202.4364 0039635 236.8710 189.8739 14.41798427654251"
      },
      "geometry": {
        "type": "Point",
        "coordinates": [
          -24.53706226214969,
          66.70959692824762
        ]
      }
    },
    {
      "type": "Feature",
      "properties": {
        "norad_id": 37486,
        "name": "COSMOS 2251 DEB",
        "group": "cosmos-2251-debris",
        "lat": 28.542799488519325,
        "lon": -84.75109558228652,
        "alt_km": 1012.333207548586,
        "timestamp": "2025-12-18T08:58:43.812588+00:00",
        "meta_object_name": "COSMOS 2251 DEB",
        "meta_object_id": "1993-036BLP",
        "meta_epoch": "2025-12-17T02:32:52.709568",
        "meta_mean_motion": 14.133616,
        "meta_eccentricity": 0.02300438,
        "meta_inclination": 73.6918,
        "meta_ra_of_asc_node": 106.7033,
        "meta_arg_of_pericenter": 334.068,
        "meta_mean_anomaly": 206.8915,
        "meta_ephemeris_type": 0,
        "meta_classification_type": "U",
        "meta_norad_cat_id": 37486,
        "meta_element_set_no": 999,
        "meta_rev_at_epoch": 63431,
        "meta_bstar": 0.0015394853,
        "meta_mean_motion_dot": 3.693e-05,
        "meta_mean_motion_ddot": 0,
        "tle_line1": "1 37486U 93036BLP 25351.10616562  .00003693  00000+0  15395-2 0  9997",
        "tle_line2": "2 37486  73.6918 106.7033 0230043 334.0680 206.8915 14.13361600634313"
      },
      "geometry": {
        "type": "Point",
        "coordinates": [
          -84.75109558228652,
          28.542799488519325
        ]
      }
    }
  ]
}